GLOBALSTAR M045         
1 25676U 99019A   26017.52074631 -.00000086  00000+0  65165-4 0  9999
2 25676  51.9978  54.3672 0000248 169.2303 356.9277 12.27070928219708
GLOBALSTAR M019         
1 25677U 99019B   26017.75751559 -.00000192  00000+0 -10595-2 0  9990
2 25677  51.9846 199.1600 0002203  61.8707 311.7084 12.13880668211207
GLOBALSTAR M044         
1 25678U 99019C   26017.73244837 -.00000086  00000+0 -38667-4 0  9999
2 25678  51.9941 177.4274 0007195  93.8865 279.7423 11.90264156196872
GLOBALSTAR M042         
1 25679U 99019D   26017.66665550 -.00000128  00000+0 -33754-3 0  9999
2 25679  51.9994 165.4658 0003308  42.4146 330.7658 12.22096082211488
GLOBALSTAR M025         
1 25770U 99031A   26017.38973122 -.00000055  00000+0  37804-3 0  9999
2 25770  51.9840  23.0532 0002290 139.6085   2.7717 11.22560780505769
GLOBALSTAR M049         
1 25771U 99031B   26017.80589326 -.00000138  00000+0 -25203-2 0  9998
2 25771  51.9885  67.6372 0002648  29.9710 330.1238 11.12123405141308
GLOBALSTAR M047         
1 25772U 99031C   26018.00137181 -.00000065  00000+0  13047-3 0  9992
2 25772  51.9846  43.6403 0016255 270.9929  88.9015 11.31931919495439
GLOBALSTAR M052         
1 25773U 99031D   26017.85784361 -.00000132  00000+0 -22158-2 0  9991
2 25773  51.9836 173.1750 0003328 146.3775   2.7338 11.15063440502455
